name,phone,region,country
Jaime Walls,1-651-813-3673,Rivne oblast,Singapore
Charde Benton,1-575-317-7748,O'Higgins,India
Bevis Floyd,(618) 594-7563,Ulster,Netherlands
Gisela Haney,1-425-416-1417,Coquimbo,Germany
Gabriel Golden,1-267-524-3776,Bolívar,Pakistan
Alvin Winters,(367) 219-4861,Alajuela,New Zealand
Leo Allison,(843) 335-1945,Western Australia,New Zealand
Ciaran Tucker,(410) 141-5216,Tomsk Oblast,Philippines
Vance Huber,1-523-558-5095,South Australia,Russian Federation
Ayanna Olson,1-708-311-6780,South Chungcheong,Norway
Aimee Kane,(423) 141-2146,Meta,Netherlands
Alfonso Beasley,1-315-346-3789,KwaZulu-Natal,Poland
Peter May,1-623-256-3544,Bihar,United Kingdom
Zelda Vazquez,1-516-395-8368,Northern Mindanao,Canada
Derek Buchanan,1-258-236-8296,Quindío,Nigeria
Ingrid Santana,1-889-289-3357,North Island,South Korea
Whilemina Bush,(774) 846-6490,South Island,Australia
Nicole Stephenson,(838) 541-6016,East Region,Poland
Hedwig Ellison,1-837-873-5238,Marche,Germany
Alexander Miranda,(733) 777-2256,Dōngběi,Mexico
David Wolfe,(384) 511-4823,Puntarenas,China
Gary Ochoa,(878) 762-5823,Adana,Canada
Jameson Boyle,1-256-687-9509,North Gyeongsang,Sweden
Hamish Torres,(284) 445-7262,Nordrhein-Westphalen,France
Gary Weiss,(668) 225-0179,Guainía,Russian Federation
Callie Downs,1-527-565-8427,Sinaloa,France
Adam Porter,(849) 645-5785,Guaviare,Sweden
Vaughan Campos,1-224-715-0832,Aragón,Pakistan
Rebekah Ingram,(482) 522-1678,Stockholms län,Norway
Amanda Malone,(384) 216-3367,Dolnośląskie,France
Idona Travis,(360) 522-5309,Zuid Holland,Spain
Leilani Petersen,1-402-996-2561,Zhōngnán,United Kingdom
Anne Gomez,1-108-357-1418,North-East Region,France
Cyrus William,1-751-248-5156,West Region,Mexico
Jolie Sykes,(979) 199-4220,Bình Phước,Australia
Lila Rojas,1-733-986-4661,North Island,Costa Rica
Zachery Medina,(503) 543-5721,Ivanovo Oblast,China
Jillian Frederick,1-880-698-5686,Bahia,Norway
Nayda Washington,(252) 845-5627,Kayseri,Ukraine
Kermit Roman,1-437-175-6226,Vienna,Belgium
Vaughan Ruiz,(231) 333-5538,Poitou-Charentes,United States
Halee Nichols,1-862-210-7958,Wielkopolskie,Spain
Zeus Cortez,1-313-474-4612,Aisén,South Korea
Mona Wise,(634) 572-8911,Mpumalanga,Mexico
Coby Gardner,1-511-223-2244,Bursa,Australia
Daniel Lang,1-256-867-6286,Eastern Visayas,Singapore
Linus Gallegos,(891) 104-8716,Northwest Territories,Australia
Elton Mcleod,1-254-559-1727,Veracruz,Russian Federation
Duncan Hinton,(845) 635-6166,Istanbul,Russian Federation
Orlando Deleon,(335) 299-9277,North Gyeongsang,South Africa
Fulton Day,1-727-681-2971,Aisén,Australia
Bernard Kelley,1-307-234-0874,Centre,United States
Jane Barrett,1-333-717-7434,Lambayeque,Vietnam
Travis Hebert,(405) 527-8355,Konya,Nigeria
Jorden Gentry,(236) 673-1667,Puno,Canada
Arthur Maldonado,1-627-550-2230,Volyn oblast,Ireland
Pandora Ramos,(973) 949-9862,North Region,Ireland
Inez Weaver,1-560-315-6868,Nord-Pas-de-Calais,Brazil
Roary Shepherd,(475) 306-8108,Liguria,China
Ian Wilkerson,(840) 715-0716,Drenthe,South Korea
Constance Frederick,(144) 234-3110,Umbria,Philippines
Kimberley Moreno,1-794-478-9182,Kocaeli,United States
Shafira Willis,1-632-550-2951,Limpopo,Singapore
Aileen Glenn,1-542-758-8157,Nordland,New Zealand
Alec Parks,1-277-495-4675,Toscana,Ukraine
Kyra Goodman,(970) 517-1262,Alsace,South Korea
Dora Sheppard,1-614-424-2447,South Island,Vietnam
Lars Serrano,(961) 677-2532,Nevada,Australia
Shelly Hodge,(266) 604-8223,Punjab,Pakistan
Amal Valentine,(443) 423-8153,Munster,Mexico
Sean Mcneil,(326) 573-2313,Agder,Chile
Macey Bird,(995) 720-4774,Podlaskie,South Korea
Michelle Newman,(252) 245-8414,Namen,Canada
Emmanuel Roberson,(279) 748-6258,Paraná,Philippines
Steel Moody,1-457-736-0251,North-East Region,Belgium
Clayton Conway,(694) 427-8123,North-East Region,Australia
Glenna Hunt,(570) 885-3092,Swiętokrzyskie,Ukraine
Marvin Leon,1-514-167-1906,Hà Nội,Poland
Martha Montgomery,(720) 283-4251,Goa,Italy
Hilda Mckinney,(657) 411-3508,Haryana,Australia
Hall Spencer,(546) 758-6441,Guerrero,Singapore
Lana Hill,(364) 133-4984,Hessen,South Korea
Echo Waller,(216) 519-0523,Mexico City,Colombia
Nyssa Bean,(366) 874-3524,Lubelskie,Belgium
Gay Hobbs,1-779-523-8106,Jeju,Germany
Phillip Stevens,1-274-440-2488,Ulster,Singapore
Brandon Stone,(362) 815-2760,Troms og Finnmark,Italy
Sierra Sawyer,(656) 418-7657,Sokoto,Netherlands
Lavinia Raymond,(446) 887-3116,Stockholms län,Germany
Cassady Ortega,(635) 757-5265,Washington,Sweden
Amela Brock,1-626-754-8548,Noord Holland,United Kingdom
Emery Savage,(676) 835-2218,Leinster,India
Lyle Aguirre,1-889-774-6688,Innlandet,South Africa
Sawyer Bruce,(667) 633-6874,Hamburg,United Kingdom
Nora Gutierrez,(656) 422-0617,Sachsen-Anhalt,France
Tanek George,1-533-811-1101,Kharkiv oblast,South Africa
Baker Willis,1-721-645-6074,Carinthia,Philippines
Abra Velasquez,1-248-332-2977,Castilla y León,Chile
Genevieve Fletcher,(723) 297-2602,Midlothian,Nigeria
Christine Jordan,(256) 473-7797,Saskatchewan,Norway
Connor Pitts,1-699-546-1529,Molise,Philippines
Inga Singleton,(519) 539-0454,North Region,Russian Federation
Phelan James,(186) 498-1012,Rio Grande do Sul,Colombia
Ivan Woodard,(328) 209-8113,Jeju,Pakistan
Noah Chang,1-441-908-7716,Northern Cape,South Africa
Yuli Langley,(595) 807-8845,Gyeonggi,Brazil
Tashya Sherman,1-132-432-2168,Bourgogne,Colombia
Sonya Tyson,(286) 645-3433,North Gyeongsang,New Zealand
Hyacinth Morin,1-436-425-4618,Leinster,New Zealand
Jeremy Shelton,(471) 433-7322,South Chungcheong,Russian Federation
Ruby Jones,1-427-604-4041,Niedersachsen,United Kingdom
Zena Combs,1-145-880-7440,Troms og Finnmark,Sweden
Arthur Hutchinson,(521) 281-2012,Paraíba,South Korea
Vance Wiley,(873) 264-6448,Ceará,United Kingdom
Cyrus Tyler,1-520-723-8557,Manisa,Australia
Fay Frederick,(858) 517-9963,Östergötlands län,Canada
Christopher Bell,(369) 132-5155,KwaZulu-Natal,Singapore
Silas King,1-876-860-7833,Rheinland-Pfalz,United States
Chantale Roman,(561) 840-7665,Xīnán,Chile
Melyssa Pierce,(633) 759-8348,Burgenland,Italy
Wade Stephens,(228) 755-0084,Lombardia,Mexico
Zachery Mills,1-775-478-8215,Sindh,Germany
Chloe Pruitt,(467) 856-4161,Calabarzon,Philippines
Levi York,1-863-590-6718,Cherkasy oblast,Italy
Gannon Mclean,(292) 167-8399,Caraga,Austria
Hedley Ford,1-893-508-5865,North Island,France
Brett Patton,1-136-200-3421,North Kalimantan,Peru
Kathleen Cortez,1-288-989-5490,Ankara,Russian Federation
David Jarvis,(697) 480-6953,Florida,Mexico
Basil Kaufman,(793) 385-0157,Flevoland,Norway
Maggy Branch,(111) 726-8628,Munster,Austria
Tana Parrish,1-704-366-8394,Rogaland,Singapore
Nelle Dominguez,1-458-263-8683,Ulster,Netherlands
Byron Johns,1-237-822-5153,Tamil Nadu,Brazil
Wayne Wolfe,1-551-812-1276,North Jeolla,India
Wade Fleming,(633) 632-8877,Innlandet,Germany
Camille Raymond,1-814-972-1970,Guanacaste,Australia
Adele Dean,1-578-745-4097,Bangsamoro,Spain
Raya Rosales,(340) 672-4928,Victoria,Peru
Lareina Brock,(299) 211-6935,Jönköpings län,Netherlands
Ocean Green,1-814-291-4550,Maranhão,Indonesia
Chandler Burnett,(329) 767-2748,Distrito Capital,Peru
Wang Sandoval,(781) 624-5264,Central Luzon,Austria
Jin Walls,(494) 385-0615,Kayseri,Pakistan
Hop Glenn,(546) 417-2679,North Island,Australia
Thor Martin,(486) 682-4673,Noord Holland,Costa Rica
Fuller Foreman,(816) 948-7965,West-Vlaanderen,Philippines
Rama Hardin,(685) 565-1318,Connacht,Mexico
Donna Juarez,(843) 186-4847,Noord Brabant,United Kingdom
Oren Montgomery,1-344-581-5843,Vienna,Netherlands
Destiny Lane,1-768-276-7787,Santa Catarina,New Zealand
Arden Palmer,(612) 756-3411,Bali,Austria
Judah Brady,(747) 783-7916,Dalarnas län,Peru
Elliott Lane,1-242-950-5818,Puebla,Colombia
Mollie Howell,(158) 545-0313,Khyber Pakhtoonkhwa,France
Skyler Cleveland,1-351-104-0883,North Island,Australia
Madaline Bennett,(966) 465-8345,Devon,Sweden
Wynne Middleton,1-642-576-1512,Minas Gerais,South Africa
Sybill Compton,1-264-215-0847,Lampung,United States
Joshua Byers,1-536-485-1960,Aceh,India
Norman Nichols,(335) 548-7182,Champagne-Ardenne,Ukraine
Orlando Mcdonald,(657) 237-1291,Sindh,Indonesia
Tanner Fulton,1-753-627-0132,Vestland,United States
Cassady Weeks,(322) 904-8035,Centre,Ireland
Jessica Booker,(317) 779-6750,Maule,Sweden
Marshall Carney,(799) 420-1653,Antioquia,Nigeria
Wilma Hawkins,1-330-635-4410,Waals-Brabant,Philippines
Leigh Carney,1-531-584-5132,Zakarpattia oblast,Austria
Reese Bell,(448) 328-2605,Leinster,South Africa
Grady Summers,(873) 401-6441,Paraíba,Chile
Walker Fitzpatrick,1-337-930-6391,Santa Catarina,Singapore
Cecilia Sargent,1-427-487-7585,Luik,Ireland
Emma Glover,(510) 819-1540,Querétaro,Canada
Zoe Briggs,1-214-297-5515,Central Luzon,Belgium
Kellie Velasquez,(477) 432-2786,Cambridgeshire,Brazil
Ishmael Travis,1-256-718-6415,Zhōngnán,Brazil
Kerry Serrano,(165) 452-2451,Delhi,Canada
Glenna Hale,1-342-650-4727,Mersin,New Zealand
Lenore Peterson,(183) 573-7440,North-East Region,Pakistan
Xantha Mullen,(111) 610-6712,Henegouwen,Poland
Kelsie Wolf,1-459-559-9804,Overijssel,United Kingdom
Eaton Wall,(456) 517-3729,Kincardineshire,Colombia
Quentin Atkins,(222) 278-3924,Baja California,France
Abigail Wagner,(173) 329-6544,Saratov Oblast,South Africa
Arden Travis,1-625-371-2272,Karnataka,Costa Rica
Maxwell Rasmussen,(385) 858-6816,Vestland,Poland
Dominique England,1-346-676-8699,Östergötlands län,Ireland
Dustin Baird,(830) 454-4402,Bengkulu,China
Madonna Jenkins,(572) 726-1541,Kocaeli,South Africa
Vladimir Stein,1-485-276-6545,Namen,United Kingdom
Quynn Witt,1-351-416-7451,Cusco,India
Ella Howard,(334) 742-3322,Essex,Italy
Kaye Emerson,(285) 765-2468,Lambayeque,Netherlands
Chloe Haney,(533) 386-4228,North-East Region,Italy
Kane Hendrix,(457) 705-8126,Leinster,Colombia
Lavinia Burt,(359) 877-0271,New South Wales,Philippines
Kato Vaughan,1-781-621-9452,Tasmania,Netherlands
Garrison Mercado,(815) 712-6039,Nova Scotia,Italy
Nevada Bowers,1-448-844-3650,Ontario,Vietnam
Phillip Hartman,(472) 396-2182,Nordland,Peru
Hall Noble,(343) 663-4226,Agder,United States
Walker Kemp,(219) 123-0006,Rivne oblast,Canada
Chester Cleveland,(665) 318-5114,Sindh,Philippines
Ava Burks,1-701-576-0745,South Island,Russian Federation
Guy Dickerson,(548) 755-4784,O'Higgins,Australia
Griffin Santana,1-222-356-5082,Cantabria,Australia
Stone Pratt,(713) 343-2738,Bình Định,Vietnam
Desirae Tillman,1-355-356-2764,Bangsamoro,South Africa
Odette Morgan,(281) 252-1259,North-East Region,Ukraine
Alden Castaneda,(751) 887-0346,Michoacán,Poland
Alana Johns,(731) 305-6176,Małopolskie,South Africa
Xavier Rollins,1-751-471-1827,Surrey,South Africa
Sawyer Mathis,(452) 512-2430,Ilocos Region,Belgium
Cameron Coffey,1-553-816-8506,Murmansk Oblast,Sweden
Bruce Cherry,1-217-556-5033,Oyo,Vietnam
Denton Oneil,1-637-445-5891,Burgenland,South Africa
Courtney Conrad,1-859-635-1186,North Gyeongsang,France
John Payne,(892) 835-9854,Lâm Đồng,Poland
Samuel Simon,1-586-853-8147,Nariño,Germany
Jared Spencer,1-688-226-8271,Rheinland-Pfalz,Turkey
Stephen Nelson,(378) 256-6716,North Maluku,China
Hasad Alvarez,(367) 332-4632,łódzkie,Canada
Wayne Chase,(655) 356-5495,West Region,South Korea
Yuri Berry,(520) 428-4752,Vichada,South Korea
Jada Diaz,(636) 771-7336,Stockholms län,Australia
Jin Elliott,1-365-426-5261,South Island,Netherlands
Uriel Henry,1-577-578-3718,Catalunya,New Zealand
Illana Mendoza,1-175-693-4758,Valparaíso,Austria
Emery Weiss,(901) 144-2977,Bengkulu,Vietnam
Merrill Jennings,(588) 770-6196,Papua,Netherlands
Lareina Simpson,1-213-610-2855,North Chungcheong,Poland
Astra Pittman,1-431-659-3682,Pará,United Kingdom
Ishmael Horn,(618) 412-9828,Hessen,Russian Federation
Ian Duffy,(689) 857-9503,South Chungcheong,Netherlands
Quon Buck,1-942-661-5853,Haute-Normandie,Belgium
Shaeleigh Gonzalez,(875) 524-1256,East Region,Nigeria
Leroy Bass,1-240-817-6882,Cartago,United States
Shana Chandler,(731) 345-8446,Lakshadweep,Colombia
Silas Klein,(768) 310-6766,Västra Götalands län,Sweden
Macon Norton,1-229-218-5185,South Island,Germany
Jonas Carver,(685) 457-7243,Northern Cape,Chile
Jin Tillman,(135) 915-2244,North Island,Nigeria
Kristen Griffith,1-832-186-4474,Veracruz,Italy
Martina Mcclain,1-732-768-3552,Gävleborgs län,India
Xena Duncan,1-456-422-1173,Bauchi,Austria
Cade Parks,(642) 747-8276,Chhattisgarh,Netherlands
Bernard Jacobson,1-734-403-8922,Diyarbakır,Mexico
Wang Walters,1-105-854-3081,Lampung,Singapore
Malik Dorsey,1-550-597-6351,Córdoba,France
Shelly Jackson,1-800-259-5275,South Island,Pakistan
Quynn Mccall,1-790-857-2062,Trøndelag,Indonesia
Fritz Valdez,(236) 462-7588,Junín,South Korea
Ingrid Leblanc,1-864-242-8384,Sucre,India
Odette Jimenez,1-378-328-4332,Orkney,Russian Federation
Jescie Heath,1-748-696-5477,Andaman and Nicobar Islands,Poland
Chastity Holman,(234) 363-1735,Şanlıurfa,Russian Federation
Nathaniel Beach,(326) 916-3856,West Region,Canada
Sierra Pope,(622) 256-8537,Abruzzo,South Africa
Declan Davis,(766) 697-7958,O'Higgins,Colombia
Darrel Richmond,1-427-346-0326,Kano,Sweden
Austin Morales,(412) 838-3076,Van,Vietnam
Paula Reilly,1-331-655-7185,South Island,United Kingdom
Louis Prince,1-771-392-2881,Vaupés,Austria
Scarlett Burks,1-252-738-7880,Magallanes y Antártica Chilena,Singapore
Cherokee Williams,1-605-507-5127,Tasmania,United States
Garth Bolton,(487) 173-1050,Huáběi,Canada
Stacey Navarro,(421) 576-7151,Berlin,South Africa
Tyler Chapman,(336) 365-7890,Zuid Holland,Mexico
Bert Nolan,1-644-438-8557,Castilla - La Mancha,Norway
Mark Douglas,1-617-721-3849,Ilocos Region,Chile
Adena Rodriquez,(560) 336-9912,Amazonas,Austria
Shelly Golden,(708) 880-0545,La Guajira,Netherlands
Georgia Higgins,1-805-837-8271,East Region,Nigeria
Charde Cortez,1-652-839-8078,Queensland,Ukraine
Galvin Munoz,(671) 636-6383,Khyber Pakhtoonkhwa,Australia
Tamekah Shaffer,1-165-356-8162,Île-de-France,United Kingdom
Blake Hood,1-470-927-4218,Lazio,United States
Reece Lott,1-467-824-5668,Adana,Italy
Christen Robinson,1-198-547-8863,Nariño,Germany
Noble Dodson,(862) 278-8460,Lorraine,Pakistan
Fiona Moss,1-776-482-9074,Westmorland,Austria
Erasmus Day,(442) 423-2437,Cambridgeshire,United Kingdom
Reece Knowles,(565) 642-1502,Kincardineshire,Brazil
Maia Hodge,(247) 223-4781,Prince Edward Island,Austria
Joy Wilkins,(371) 323-4535,Saint Petersburg City,Mexico
Vance Mcneil,1-401-574-8627,Jigawa,Ireland
Anne Roach,(521) 888-4673,Pays de la Loire,Philippines
Emma Hunt,1-522-467-5654,Antwerpen,South Africa
Nora Noble,1-148-849-8587,Manitoba,New Zealand
Jin Baker,(641) 448-8712,Baden Württemberg,Chile
Clinton Oliver,1-160-628-1572,Munster,United Kingdom
Ebony Collins,1-486-676-6314,Điện Biên,New Zealand
Finn Snyder,1-633-738-2983,Molise,Turkey
Lester Lee,(803) 389-4646,Vestland,Pakistan
Zahir Ball,1-986-184-8447,Davao Region,Austria
Tamekah Stanley,1-885-880-7410,O'Higgins,New Zealand
Brett William,1-337-325-4396,Michigan,Austria
Beau Simon,1-708-741-7229,Khyber Pakhtoonkhwa,South Africa
Drew Hester,1-863-758-9348,Lambayeque,Chile
Mohammad Casey,1-226-873-2616,Northwest Territories,Costa Rica
Charity Terry,1-853-677-2589,Nghệ An,Singapore
Katelyn Gallagher,(200) 631-9610,Gilgit Baltistan,United States
Ocean Travis,1-658-388-4186,North West,Belgium
Jillian Keith,1-112-253-2483,Piemonte,Sweden
Myles Solis,1-192-686-7614,Zhōngnán,United States
Guy Mccray,1-384-377-0848,Gangwon,Spain
Quinlan Padilla,(756) 432-3214,Brecknockshire,Ukraine
Philip Sandoval,(644) 957-3541,Heredia,Norway
Hayes Burton,(671) 321-3646,Cagayan Valley,Vietnam
Joseph Petersen,1-341-325-0724,Sachsen,Turkey
Lacey Griffith,(628) 475-4388,Connacht,Turkey
Nero Hall,1-718-562-4445,Warmińsko-mazurskie,Turkey
Driscoll Kelley,1-261-474-5485,Møre og Romsdal,Turkey
Clarke Hardin,1-285-438-7706,Navarra,Costa Rica
Blossom Maxwell,(844) 712-1680,Piemonte,Indonesia
Bianca Clements,1-537-653-6222,Zakarpattia oblast,Norway
Abra Goff,1-805-786-3813,North West,Colombia
Dennis Leon,(726) 533-2772,Limousin,India
Reese Gillespie,(854) 824-7522,Jammu and Kashmir,New Zealand
Jenette Fry,(630) 522-5837,Puno,Singapore
Gretchen Mcgee,(425) 684-8616,Northern Cape,Germany
Jackson Cantu,1-127-223-3524,Connacht,United States
Jared Christensen,1-931-308-6864,Trøndelag,Turkey
Drew Douglas,(422) 355-7126,Podlaskie,China
Rinah Downs,(362) 446-1105,Lai Châu,Australia
Driscoll Hess,(612) 712-2562,Magallanes y Antártica Chilena,Costa Rica
Georgia Mercer,1-530-693-8078,New South Wales,Ukraine
Christian Dickerson,1-210-267-1954,Zhōngnán,Costa Rica
Indigo Henson,1-241-566-6045,Ancash,South Africa
Nelle Curtis,1-697-280-8967,FATA,Indonesia
Jacob David,1-357-766-4753,Coahuila,Norway
Drew Hodges,(392) 528-1317,New Brunswick,France
Renee Terrell,1-313-855-3557,Imo,Ukraine
Christen Dennis,(771) 553-5219,Brecknockshire,Russian Federation
Fritz Lowery,1-462-487-3947,Eastern Visayas,Nigeria
Macon Charles,(533) 513-0005,Risaralda,Singapore
Yael Sutton,1-587-462-4826,Pará,Canada
Cheryl Barrett,1-812-330-7473,Minas Gerais,United Kingdom
Graham Harding,1-337-375-8011,Lower Austria,Philippines
Katelyn Mcpherson,(837) 662-9142,Puntarenas,United Kingdom
Oliver Fischer,(724) 323-4355,Sachsen-Anhalt,Belgium
Amelia Gilbert,(730) 325-4586,Dumfriesshire,China
Lila Young,1-887-517-1587,Bauchi,France
Curran Blackwell,1-471-711-8185,Western Australia,France
Aristotle Duran,1-387-991-5587,Bahia,Colombia
Kelsey Mitchell,1-347-915-3766,West Sumatra,Poland
Dale Dawson,1-217-134-6045,Brussels Hoofdstedelijk Gewest,United States
Griffin Avila,1-344-158-7621,Magallanes y Antártica Chilena,Russian Federation
Xantha Spence,1-795-472-6341,Västra Götalands län,Belgium
Howard Bray,(357) 154-2387,Eastern Cape,United States
Winifred Ellison,(438) 560-6955,Galicia,Russian Federation
Odysseus Cline,(896) 183-7177,Northwest Territories,Italy
Curran Hawkins,1-298-365-1142,Lviv oblast,South Africa
Kuame Faulkner,(152) 762-3785,Lakshadweep,Germany
Inez Middleton,1-665-845-0271,North Island,Indonesia
Chaney Kennedy,(819) 245-3051,Luxemburg,France
Noelani Andrews,(545) 424-2052,Tomsk Oblast,South Korea
Regina Gilmore,(450) 292-3347,Vienna,Colombia
Charissa Sosa,1-682-243-4891,Utrecht,Italy
Anne Dennis,1-925-175-0685,Orenburg Oblast,Poland
Illana Richard,(722) 328-6563,Bengkulu,Chile
Rhona Knowles,(190) 595-2526,Mexico City,France
September Wong,(647) 148-3824,Antwerpen,Brazil
Noble Mueller,1-627-145-5388,Ternopil oblast,Brazil
MacKenzie Ellison,1-311-282-2443,Catalunya,South Korea
Tyrone Parks,1-212-764-4716,South Sulawesi,Australia
Phelan Potter,(679) 743-2151,Västra Götalands län,New Zealand
Chaney O'brien,1-257-749-6959,Saskatchewan,Australia
Kirsten Quinn,1-979-966-3173,Şanlıurfa,Germany
Lucius Guerra,1-417-570-4445,Zhōngnán,South Korea
Meghan Cooley,1-366-961-1266,Amur Oblast,South Africa
Aiko Farley,1-602-937-6355,Mersin,Russian Federation
Unity Stafford,(644) 323-5461,Cagayan Valley,China
Donovan Hopkins,(877) 534-6657,Carinthia,France
Rahim Garza,1-854-638-9630,Ryazan Oblast,Norway
Ifeoma England,1-381-535-9375,Argyllshire,Colombia
Danielle Holman,(563) 381-1548,Vlaams-Brabant,Indonesia
Emerson Albert,(651) 701-8165,Limpopo,Peru
Angelica Ewing,1-775-452-7255,Zeeland,Indonesia
Curran Gilmore,(874) 365-7361,West Kalimantan,Poland
Wang Bowman,1-907-735-2131,Amazonas,Belgium
Reese Burt,(547) 644-8254,Northern Cape,Turkey
Adara Roberts,1-533-596-2513,Hải Dương,Chile
Amelia Foster,(437) 871-8106,Munster,Norway
Stuart Fletcher,1-291-173-9230,Bayern,Turkey
Bradley Strickland,(945) 630-4374,Jönköpings län,Chile
Blossom Dudley,1-370-354-1964,Utrecht,Vietnam
Julian Alston,1-634-566-4424,Samsun,Singapore
Isaac Lindsay,(153) 920-3604,Podkarpackie,Pakistan
Peter Pollard,1-721-979-5212,Flintshire,Vietnam
Jasmine Barker,1-594-613-2752,Aceh,Austria
Shaine Fitzpatrick,(714) 485-7217,Puglia,Canada
Orla Rodriquez,1-563-825-4721,Puntarenas,Nigeria
Orli Dixon,1-389-419-6065,South Island,China
Wang Cote,(541) 678-0105,Kaduna,South Africa
Rooney Mcknight,(614) 652-2215,Małopolskie,South Korea
Mercedes Ferrell,1-153-610-7769,Dōngběi,India
Fleur Turner,1-281-201-4469,West Sumatra,Australia
Emery Gilbert,1-815-851-5853,Benue,Spain
Patricia Atkins,(652) 696-1428,North Maluku,Sweden
Belle Peck,1-185-712-4395,Bình Phước,Canada
Shelley Santana,(659) 587-0176,Alaska,Austria
Miranda Noel,1-753-944-2826,Munster,Mexico
Knox Buck,(375) 753-8643,Borno,Ukraine
Lani Ortiz,1-752-374-4725,Delta,United Kingdom
Melanie Gibbs,(661) 463-5986,West Region,Russian Federation
Kaseem Peters,1-847-465-5782,Huáběi,New Zealand
India Taylor,(194) 785-2530,Western Visayas,Netherlands
Hedley Carter,1-679-894-5731,Akwa Ibom,France
Stacy Savage,(219) 714-0740,Calabria,Turkey
Hayes Leblanc,(224) 157-4306,Gaziantep,Chile
Sylvia Levy,(568) 220-1883,Somerset,India
Brett Salinas,(324) 382-9694,Brandenburg,Ireland
Shaeleigh Morgan,(766) 858-7186,Soccsksargen,United States
Owen Allen,1-930-398-5391,Rheinland-Pfalz,Vietnam
Cara Bass,1-192-754-2368,Pomorskie,Turkey
Madison Berry,(237) 273-1868,North Gyeongsang,Russian Federation
Kato Ford,1-734-552-2855,Free State,United Kingdom
Hilda Woods,(523) 364-2526,Troms og Finnmark,France
Clio Lancaster,(864) 559-5386,Ivanovo Oblast,Russian Federation
Ahmed Malone,1-824-888-4648,Osun,Ukraine
Kylan Floyd,1-253-422-5802,Luxemburg,Poland
Wylie Brock,1-687-477-3654,Western Cape,France
Hope Mcclain,1-712-128-1129,Leinster,United States
Harper Leonard,(824) 614-1461,Cagayan Valley,Nigeria
Shana Crosby,1-944-265-2434,Quindío,New Zealand
Carson Mccray,1-521-878-8157,Magallanes y Antártica Chilena,Vietnam
Allegra Zimmerman,(647) 313-6624,North Kalimantan,Chile
Cora Morris,1-298-523-0845,Gyeonggi,Sweden
Charde Ford,1-536-727-8583,Munster,Russian Federation
Hop Wooten,(664) 244-8302,Piura,Mexico
Alea Bowen,(428) 929-8288,Northern Cape,Australia
Quail Walker,(544) 251-7270,South Island,Colombia
Mechelle Ford,1-373-775-4742,Gävleborgs län,Indonesia
Griffin Robertson,1-782-481-6440,North Island,Ukraine
Abraham Bender,(387) 411-2237,San Luis Potosí,Nigeria
Winter Rasmussen,(551) 547-5781,Bretagne,New Zealand
Clinton Rivas,1-988-449-4566,Coahuila,Philippines
Harlan Coleman,(237) 467-0414,Saint Petersburg City,Norway
Noel Horne,1-164-455-6624,Noord Holland,Belgium
Curran Rhodes,(338) 755-5663,Västra Götalands län,France
Melvin Mclean,1-718-761-2236,North-East Region,China
Cynthia Wall,(852) 865-1796,Anglesey,Netherlands
Clio Alford,1-614-984-7185,Huádōng,Indonesia
Ariel Jensen,(425) 108-3137,Nordland,Italy
Haviva Humphrey,1-472-822-1269,Navarra,Norway
Rosalyn Rodgers,1-694-553-6133,Limón,Ukraine
Otto Ashley,1-996-352-5233,Provence-Alpes-Côte d'Azur,South Africa
April Erickson,1-537-690-3715,Borno,Vietnam
Wang Gonzalez,(232) 336-0772,Dalarnas län,Vietnam
Dylan Stevens,(742) 345-7268,Lower Austria,Ukraine
Justin Newton,1-121-327-5670,Sindh,Austria
Brittany Vasquez,(296) 975-3073,Van,Australia
Benedict Robertson,1-695-382-6455,Vĩnh Phúc,Ireland
Raphael Becker,1-763-438-9170,Møre og Romsdal,Singapore
Emi Carr,1-538-650-6268,Canarias,Costa Rica
Brock Horton,(218) 495-7472,Warmińsko-mazurskie,New Zealand
Karyn Page,(534) 595-6861,Delta,Australia
Nehru Mckee,(657) 339-6907,Puno,Peru
Christen Curtis,(785) 316-4631,Tyrol,Nigeria
Allegra Bright,1-113-142-1122,Newfoundland and Labrador,Pakistan
Geoffrey Crane,(888) 489-7737,Ulyanovsk Oblast,Pakistan
Baker Compton,(631) 734-3848,Luxemburg,Colombia
Hedley Holman,(568) 782-0983,Carinthia,Ireland
Travis Terrell,1-932-400-7196,Florida,China
Austin Key,1-431-837-0553,Loreto,Italy
Nita James,1-547-870-7873,Cagayan Valley,Costa Rica
Veda Potts,(414) 309-3525,Ontario,Mexico
Lila Mcconnell,(973) 565-7728,Rheinland-Pfalz,Colombia
Ebony Graves,1-396-311-1350,North Sulawesi,Ukraine
Odysseus Morton,(824) 934-8503,Bauchi,Brazil
Idola Pittman,1-967-574-2888,Niger,Costa Rica
Regan Clarke,(466) 862-8562,Central Region,Colombia
Trevor Kennedy,1-286-379-1535,Ohio,United Kingdom
Eleanor Oliver,(647) 954-4714,North Island,Russian Federation
Owen Calhoun,(855) 624-7982,Calabria,Pakistan
Helen Love,1-741-316-3855,Manipur,United States
Hunter O'brien,(740) 824-2362,Västra Götalands län,Mexico
Samson Campbell,1-981-743-0279,Flevoland,Italy
Kane Mcconnell,(246) 772-5827,Picardie,Italy
Jelani Talley,(595) 569-4761,South Island,Brazil
Benjamin Wooten,1-684-377-7543,South Gyeongsang,India
Vernon Cantu,(877) 272-4983,Bahia,Pakistan
Thor Hancock,(224) 334-1475,Canarias,Spain
Cyrus Fox,(359) 729-0452,Vestland,Norway
Ifeoma Hoover,(777) 461-1841,Tyrol,Sweden
John Hull,1-627-304-3544,North Island,South Korea
Belle Sharp,1-868-312-5383,Ninh Thuận,Pakistan
Shelly Jefferson,1-218-543-7319,Central Region,Germany
Dana Spears,(855) 824-3373,Maranhão,Singapore
Dalton Guthrie,1-718-627-3220,Östergötlands län,Singapore
Paula Herman,(529) 186-6842,Magdalena,Norway
Upton Fernandez,1-861-446-1955,Central Java,Indonesia
Giacomo Henry,(344) 611-1529,Huila,Ukraine
Aquila Osborne,1-893-246-4956,Lagos,China
Summer Bailey,1-372-676-7486,Minas Gerais,Poland
Yardley Emerson,1-276-995-4512,Gelderland,Russian Federation
Drew Meyer,(863) 408-9225,Kharkiv oblast,Colombia
Caesar Logan,1-881-347-8254,Western Australia,Germany
Adrian Gonzalez,1-626-197-1847,Punjab,India
